satname,norad_id,inclination_deg,eccentricity,mean_motion_rev_per_day,perigee_km,apogee_km,l1,l2
STARLINK-1008,44714,53.1539,0.0001969,15.46710147,425.0179691185149,427.69757916057097,1 44714U 19074B   26134.67512787  .00011444  00000+0  23350-3 0  9999,2 44714  53.1539 228.6817 0001969  21.5007 338.6083 15.46710147359028
STARLINK-1012,44718,53.1584,0.0001707,15.46922159,424.5746162759515,426.89745853092063,1 44718U 19074F   26134.87054718  .00014581  00000+0  29291-3 0  9995,2 44718  53.1584 228.0651 0001707  16.5583 343.5481 15.46922159359042
STARLINK-1017,44723,53.0494,0.0004218,15.29672469,473.8992260717014,479.6820430242069,1 44723U 19074L   26134.64686213  .00023581  00000+0  81875-3 0  9993,2 44723  53.0494 225.7883 0004218 316.9060  43.1608 15.29672469359046
STARLINK-1020,44725,53.1589,0.0002139,15.51168471,411.8606399063383,414.7660223579969,1 44725U 19074N   26134.32477929  .00048236  00000+0  81466-3 0  9992,2 44725  53.1589 255.5861 0002139   2.3327 357.7692 15.51168471358597
STARLINK-1036,44741,53.0434,0.0002236,15.66739857,366.7310974263919,369.7480770362008,1 44741U 19074AE  26134.43973006  .00034458  00000+0  32507-3 0  9992,2 44741  53.0434 227.1522 0002236 268.5008  91.5751 15.66739857359006
STARLINK-1039,44744,53.0622,0.0001709,15.2698858,483.64771238738376,485.993471292275,1 44744U 19074AH  26134.76434281  .00026590  00000+0  99989-3 0  9993,2 44744  53.0622 270.1378 0001709 341.6017  18.4919 15.26988580358437
STARLINK-1042,44747,53.041,0.0003201,15.52960436,405.91560739979377,410.26014856667825,1 44747U 19074AL  26134.29245177  .00016026  00000+0  25980-3 0  9991,2 44747  53.0410 139.2187 0003201  33.5322 326.5889 15.52960436360254
STARLINK-1043,44748,53.0501,0.0002028,15.58237888,391.38365310442623,394.1299276257978,1 44748U 19074AM  26134.56104889  .00026245  00000+0  34626-3 0  9997,2 44748  53.0501 235.5955 0002028 312.7608  47.3232 15.58237888358907
STARLINK-1046,44751,53.0494,0.000543,15.521584,406.73921979352144,414.1115985698916,1 44751U 19074AQ  26134.73322615  .00047805  00000+0  77907-3 0  9993,2 44751  53.0494 255.0228 0005430 350.9900   9.1011 15.52158400358649
STARLINK-1047,44752,53.0683,0.0003514,15.33953265,461.62701504756114,466.4356909660546,1 44752U 19074AR  26134.45933071  .00005937  00000+0  18931-3 0  9999,2 44752  53.0683 198.4083 0003514  70.6136 289.5245 15.33953265359439
STARLINK-1048,44753,53.0455,0.0006103,15.64922969,369.3398087139067,377.5808083887241,1 44753U 19074AS  26134.46827872  .00033220  00000+0  33697-3 0  9994,2 44753  53.0455 208.6883 0006103 338.5937  21.4821 15.64922969359266
STARLINK-1063,44768,53.1566,7.87e-05,15.46664857,425.9550837506322,427.0261321361231,1 44768U 19074BH  26134.94580683  .00027945  00000+0  55754-3 0  9994,2 44768  53.1566 268.4032 0000787  39.0372 321.0693 15.46664857358505
STARLINK-1067,44771,53.044,0.0005553,15.71225417,351.6545632444213,359.1328224318877,1 44771U 19074BL  26134.69631552  .00045799  00000+0  35727-3 0  9997,2 44771  53.0440 240.6159 0005553 296.7559  63.2889 15.71225417358848
STARLINK-1068,44772,53.0444,0.0001952,15.72053474,351.7150333855252,354.34288057513004,1 44772U 19074BM  26134.64895503  .00040994  00000+0  30970-3 0  9998,2 44772  53.0444 214.6358 0001952  59.9576 300.1635 15.72053474359196
STARLINK-1114,44927,53.0437,0.0001314,15.6173732,381.7501458561019,383.5268776605908,1 44927U 20001P   26134.89443124  .00066616  00000+0  75664-3 0  9995,2 44927  53.0437   8.7115 0001314  52.6435 307.4697 15.61737320350409
STARLINK-1123,44930,53.1465,0.0002561,15.54423046,402.0934203501256,405.5671439920543,1 44930U 20001S   26134.94637401  .00052651  00000+0  78980-3 0  9996,2 44930  53.1465  33.8640 0002561 171.9286 188.1767 15.54423046350064
STARLINK-1094,44941,53.1554,0.0002417,15.51136715,411.764507877102,415.0475397748187,1 44941U 20001AD  26134.91837025  .00061706  00000+0  10394-2 0  9994,2 44941  53.1554   8.4217 0002417 199.5317 160.5601 15.51136715350426
STARLINK-1122,44949,53.1577,0.0001537,15.50832872,413.24907559626627,415.3370686004291,1 44949U 20001AM  26133.70029741  .00050648  00000+0  86502-3 0  9994,2 44949  53.1577  14.8096 0001537 188.0751 172.0234 15.50832872350226
STARLINK-1080,44961,53.0472,0.0001675,15.58084674,392.0664605170796,394.3348586330376,1 44961U 20001AZ  26134.26482434  .00073950  00000+0  96364-3 0  9990,2 44961  53.0472 332.1815 0001675 282.1081  77.9743 15.58084674350868
STARLINK-1090,44968,53.1515,0.0001141,15.47489236,423.29761870126276,424.849883194629,1 44968U 20001BG  26134.92071711  .00036389  00000+0  70240-3 0  9992,2 44968  53.1515 356.0841 0001141 165.8697 194.2344 15.47489236350597
STARLINK-1132,45044,53.1525,5.72e-05,15.52298414,409.62891140927695,410.4054762490514,1 45044U 20006A   26134.71528718  .00049771  00000+0  80698-3 0  9991,2 45044  53.1525 298.9638 0000572 128.0163 232.0899 15.52298414347154
STARLINK-1131,45047,53.1597,0.0001144,15.49238998,418.17343758886,419.72861132885646,1 45047U 20006D   26134.55145878  .00051927  00000+0  93779-3 0  9998,2 45047  53.1597 332.0204 0001144 246.9885 113.1004 15.49238998346672
STARLINK-1134,45048,53.0278,0.0005117,15.52987241,404.53731833629354,411.4822609608191,1 45048U 20006E   26134.73480076  .00068218  00000+0  10732-2 0  9999,2 45048  53.0278 282.1638 0005117   3.9510 356.1538 15.52987241347379
STARLINK-1156,45054,53.1596,0.0001548,15.32970199,465.8965923796777,468.0158332383644,1 45054U 20006L   26134.95378750  .00032488  00000+0  10131-2 0  9998,2 45054  53.1596 332.8454 0001548 243.3873 116.6970 15.32970199346690
STARLINK-1166,45060,53.0474,0.0001195,15.55613122,399.5609130916582,401.1809764904647,1 45060U 20006S   26134.96421113  .00060035  00000+0  86040-3 0  9990,2 45060  53.0474 314.3715 0001195 245.1822 114.9064 15.55613122346946
STARLINK-1169,45061,53.1564,0.000331,15.35978227,455.7536671801681,460.27920075345446,1 45061U 20006T   26134.25583689  .00036352  00000+0  10287-2 0  9994,2 45061  53.1564 335.2362 0003310 196.0621 164.0277 15.35978227346603
STARLINK-1171,45062,53.0423,0.0001826,15.71231209,354.1476053535589,356.60668471932695,1 45062U 20006U   26134.70111324  .00044129  00000+0  34462-3 0  9991,2 45062  53.0423 284.2557 0001826 204.7697 155.3232 15.71231209347344
STARLINK-1133,45064,53.1586,0.0001762,15.33057705,465.4896749690588,467.90179402469585,1 45064U 20006W   26134.85973790  .00029338  00000+0  91385-3 0  9994,2 45064  53.1586 310.0674 0001762 273.8095  86.2705 15.33057705347019
STARLINK-1167,45071,53.1562,0.0002372,15.35195571,458.7175700889766,461.9617434149395,1 45071U 20006AD  26134.50736431  .00031870  00000+0  92664-3 0  9998,2 45071  53.1562 311.1696 0002372 194.0842 166.0095 15.35195571346967
STARLINK-1168,45072,53.1574,0.0001578,15.3304257,465.6606632265466,467.82090665547366,1 45072U 20006AE  26133.73294787  .00028113  00000+0  87673-3 0  9996,2 45072  53.1574 315.5376 0001578 261.3236  98.7587 15.33042570346837
STARLINK-1172,45074,53.1563,0.000229,15.36222877,455.7253108489731,458.8559367006619,1 45074U 20006AG  26134.87135966  .00030916  00000+0  87036-3 0  9994,2 45074  53.1563 308.9823 0002290 206.1466 153.9422 15.36222877347021
STARLINK-1153,45080,53.1591,0.0003137,15.35255213,458.01737240578586,462.307721541556,1 45080U 20006AN  26134.88183772  .00019609  00000+0  57418-3 0  9997,2 45080  53.1591 309.3384 0003137 216.4503 143.6286 15.35255213347026
STARLINK-1151,45081,53.0494,0.0002311,15.74236234,345.25131074667115,348.3595791447251,1 45081U 20006AP  26134.65645895  .00051963  00000+0  35612-3 0  9993,2 45081  53.0494 273.7407 0002311 240.9714 119.1073 15.74236234347484
STARLINK-1185,45087,53.1607,0.0002138,15.43326026,434.84423186732874,437.75808562400834,1 45087U 20006AV  26134.69818193  .00021390  00000+0  48053-3 0  9990,2 45087  53.1607 291.7379 0002138 280.1348  79.9417 15.43326026347256
STARLINK-1183,45088,53.1595,0.0001169,15.32886554,466.4050007783726,468.00544178970995,1 45088U 20006AW  26133.44869465  .00023511  00000+0  73914-3 0  9992,2 45088  53.1595 301.4448 0001169 283.6120  76.4752 15.32886554347000
STARLINK-1152,45096,53.0367,0.0002534,15.46137235,426.3138956286739,429.763265412882,1 45096U 20006BE  26134.62370138  .00038222  00000+0  77220-3 0  9995,2 45096  53.0367 253.5860 0002534  11.6240 348.4824 15.46137235347764
STARLINK-1184,45098,53.0527,0.0002645,15.13262717,524.4316353571039,528.0840602315857,1 45098U 20006BG  26134.50909628  .00012850  00000+0  72964-3 0  9995,2 45098  53.0527 307.4335 0002645 342.2751  17.8148 15.13262717346991
STARLINK-1193,45100,53.0481,0.0003592,15.6553921,369.263907153505,374.112981752799,1 45100U 20006BJ  26134.65814590  .00031911  00000+0  31631-3 0  9993,2 45100  53.0481 268.5973 0003592 230.4537 129.6161 15.65539210347553
STARLINK-1143,45179,53.0402,4.51e-05,15.80529656,328.6393078577812,329.24428636527955,1 45179U 20012B   26134.01198316  .00146048  00000+0  74254-3 0  9993,2 45179  53.0402   6.2331 0000451 262.1711  97.9258 15.80529656346197
STARLINK-1202,45183,53.1555,0.0003018,15.32767306,465.4942264714864,469.62628933635733,1 45183U 20012F   26134.88992607  .00029124  00000+0  91554-3 0  9995,2 45183  53.1555  91.4446 0003018  84.1298 276.0047 15.32767306345096
STARLINK-1216,45185,53.1565,0.0003134,15.33018265,464.66792474630984,468.9583394891206,1 45185U 20012H   26134.28668709  .00034064  00000+0  10598-2 0  9991,2 45185  53.1565  94.1643 0003134  82.3704 277.7654 15.33018265344948
STARLINK-1225,45187,53.157,0.0002744,15.3293831,465.1728230391627,468.9294622918569,1 45187U 20012K   26134.28456888  .00035417  00000+0  11041-2 0  9993,2 45187  53.1570  94.6270 0002744  78.9539 281.1771 15.32938310344984
STARLINK-1230,45189,53.1568,0.0003009,15.32899771,465.10612155909257,469.225624828181,1 45189U 20012M   26134.62045775  .00027659  00000+0  86663-3 0  9994,2 45189  53.1568  93.1206 0003009  81.8938 278.2405 15.32899771342264
